LANDSAT 9               
1 49260U 21088A   24278.42439009  .00002728  00000+0  61536-3 0  9996
2 49260  98.2216 346.6580 0001331  91.9797 268.1554 14.57116098160609
